HULIANWANG DIGUI-12     
1 62972U 25030B   26199.21767242 -.00000092  00000+0  70020-4 0  9998
2 62972  50.0018 124.6580 0000918 281.3675  78.7094 13.29322404 69985
HULIANWANG DIGUI-13     
1 62973U 25030C   26199.20087032 -.00000094  00000+0  65599-4 0  9997
2 62973  50.0021 124.5861 0000723 282.4680  77.6112 13.29324567 69984
HULIANWANG DIGUI-14     
1 62974U 25030D   26199.25104638 -.00000090  00000+0  73183-4 0  9999
2 62974  50.0026 124.2093 0000731 286.8641  73.2151 13.29327549 69997
HULIANWANG DIGUI-15     
1 62975U 25030E   26199.26772208 -.00000097  00000+0  59027-4 0  9993
2 62975  50.0022 124.2761 0000818 285.6781  74.4001 13.29324559 69999
HULIANWANG DIGUI-16     
1 62976U 25030F   26199.24277505 -.00000095  00000+0  63165-4 0  9998
2 62976  50.0044 124.2365 0000701 285.6075  74.4720 13.29325604 69991
HULIANWANG DIGUI-17     
1 62977U 25030G   26199.23432231 -.00000086  00000+0  81286-4 0  9991
2 62977  50.0056 124.2444 0000818 277.1132  82.9647 13.29325752 69998
HULIANWANG DIGUI-18     
1 62978U 25030H   26199.22594703 -.00000093  00000+0  67644-4 0  9994
2 62978  50.0061 124.2155 0000845 276.5535  83.5241 13.29327704 69990
HULIANWANG DIGUI-19     
1 62979U 25030J   26199.25950639 -.00000097  00000+0  58290-4 0  9993
2 62979  50.0046 124.3311 0000734 275.3743  84.7045 13.29319104 69994
HULIANWANG DIGUI-20     
1 63687U 25086A   26199.30174592  .00000055  00000+0  93077-4 0  9998
2 63687  86.5066 302.6538 0002090 111.9189 248.2168 13.24411625 58992
HULIANWANG DIGUI-21     
1 63688U 25086B   26199.30933250  .00000067  00000+0  12117-3 0  9991
2 63688  86.5095 302.7175 0002034 114.8160 245.3186 13.24410309 58987
HULIANWANG DIGUI-22     
1 63689U 25086C   26199.31685282  .00000072  00000+0  13366-3 0  9995
2 63689  86.5060 302.5724 0002133 111.0876 249.0486 13.24410678 58984
HULIANWANG DIGUI-23     
1 63690U 25086D   26199.25639045  .00000047  00000+0  74331-4 0  9998
2 63690  86.5102 302.7837 0002109 111.6606 248.4753 13.24410435 58970
HULIANWANG DIGUI-24     
1 63691U 25086E   26199.26397981  .00000036  00000+0  50195-4 0  9990
2 63691  86.5109 302.8166 0002074 114.0648 246.0703 13.24411129 58978
HULIANWANG DIGUI-25     
1 63692U 25086F   26199.27153575  .00000026  00000+0  27298-4 0  9998
2 63692  86.5047 302.5562 0002019 111.8190 248.3160 13.24410445 58975
HULIANWANG DIGUI-26     
1 63693U 25086G   26199.24884059  .00000059  00000+0  10362-3 0  9993
2 63693  86.5096 302.7536 0002246 116.8826 243.2538 13.24409466 58970
HULIANWANG DIGUI-27     
1 63694U 25086H   26199.27906009  .00000035  00000+0  46662-4 0  9994
2 63694  86.5057 302.6004 0002090 113.3288 246.8067 13.24412282 58974
