{"fetched_at":"2026-07-18T17:29:57.623Z","source":"https://celestrak.org/NORAD/elements/gp.php?NAME=HULIANWANG&FORMAT=JSON","constellation":"guowang","records":[{"OBJECT_NAME":"HULIANWANG DIGUI-12","OBJECT_ID":"2025-030B","EPOCH":"2026-07-18T05:13:26.897088","CLASSIFICATION_TYPE":"U","MEAN_MOTION":13.29322404,"ECCENTRICITY":0.00009189,"INCLINATION":50.0018,"RA_OF_ASC_NODE":124.658,"ARG_OF_PERICENTER":281.3675,"MEAN_ANOMALY":78.7094,"EPHEMERIS_TYPE":0,"NORAD_CAT_ID":62972,"ELEMENT_SET_NO":999,"REV_AT_EPOCH":6998,"BSTAR":0.000070019933,"MEAN_MOTION_DOT":-9.2e-7,"MEAN_MOTION_DDOT":0},{"OBJECT_NAME":"HULIANWANG DIGUI-13","OBJECT_ID":"2025-030C","EPOCH":"2026-07-18T04:49:15.195648","CLASSIFICATION_TYPE":"U","MEAN_MOTION":13.29324567,"ECCENTRICITY":0.00007233,"INCLINATION":50.0021,"RA_OF_ASC_NODE":124.5861,"ARG_OF_PERICENTER":282.468,"MEAN_ANOMALY":77.6112,"EPHEMERIS_TYPE":0,"NORAD_CAT_ID":62973,"ELEMENT_SET_NO":999,"REV_AT_EPOCH":6998,"BSTAR":0.000065598766,"MEAN_MOTION_DOT":-9.4e-7,"MEAN_MOTION_DDOT":0},{"OBJECT_NAME":"HULIANWANG DIGUI-14","OBJECT_ID":"2025-030D","EPOCH":"2026-07-18T06:01:30.407232","CLASSIFICATION_TYPE":"U","MEAN_MOTION":13.29327549,"ECCENTRICITY":0.00007312,"INCLINATION":50.0026,"RA_OF_ASC_NODE":124.2093,"ARG_OF_PERICENTER":286.8641,"MEAN_ANOMALY":73.2151,"EPHEMERIS_TYPE":0,"NORAD_CAT_ID":62974,"ELEMENT_SET_NO":999,"REV_AT_EPOCH":6999,"BSTAR":0.000073182863,"MEAN_MOTION_DOT":-9e-7,"MEAN_MOTION_DDOT":0},{"OBJECT_NAME":"HULIANWANG DIGUI-15","OBJECT_ID":"2025-030E","EPOCH":"2026-07-18T06:25:31.187712","CLASSIFICATION_TYPE":"U","MEAN_MOTION":13.29324559,"ECCENTRICITY":0.00008188,"INCLINATION":50.0022,"RA_OF_ASC_NODE":124.2761,"ARG_OF_PERICENTER":285.6781,"MEAN_ANOMALY":74.4001,"EPHEMERIS_TYPE":0,"NORAD_CAT_ID":62975,"ELEMENT_SET_NO":999,"REV_AT_EPOCH":6999,"BSTAR":0.000059027368,"MEAN_MOTION_DOT":-9.7e-7,"MEAN_MOTION_DDOT":0},{"OBJECT_NAME":"HULIANWANG DIGUI-16","OBJECT_ID":"2025-030F","EPOCH":"2026-07-18T05:49:35.764320","CLASSIFICATION_TYPE":"U","MEAN_MOTION":13.29325604,"ECCENTRICITY":0.00007014,"INCLINATION":50.0044,"RA_OF_ASC_NODE":124.2365,"ARG_OF_PERICENTER":285.6075,"MEAN_ANOMALY":74.472,"EPHEMERIS_TYPE":0,"NORAD_CAT_ID":62976,"ELEMENT_SET_NO":999,"REV_AT_EPOCH":6999,"BSTAR":0.000063165267,"MEAN_MOTION_DOT":-9.5e-7,"MEAN_MOTION_DDOT":0},{"OBJECT_NAME":"HULIANWANG DIGUI-17","OBJECT_ID":"2025-030G","EPOCH":"2026-07-18T05:37:25.447584","CLASSIFICATION_TYPE":"U","MEAN_MOTION":13.29325752,"ECCENTRICITY":0.00008184,"INCLINATION":50.0056,"RA_OF_ASC_NODE":124.2444,"ARG_OF_PERICENTER":277.1132,"MEAN_ANOMALY":82.9647,"EPHEMERIS_TYPE":0,"NORAD_CAT_ID":62977,"ELEMENT_SET_NO":999,"REV_AT_EPOCH":6999,"BSTAR":0.000081285792,"MEAN_MOTION_DOT":-8.6e-7,"MEAN_MOTION_DDOT":0},{"OBJECT_NAME":"HULIANWANG DIGUI-18","OBJECT_ID":"2025-030H","EPOCH":"2026-07-18T05:25:21.823392","CLASSIFICATION_TYPE":"U","MEAN_MOTION":13.29327704,"ECCENTRICITY":0.00008456,"INCLINATION":50.0061,"RA_OF_ASC_NODE":124.2155,"ARG_OF_PERICENTER":276.5535,"MEAN_ANOMALY":83.5241,"EPHEMERIS_TYPE":0,"NORAD_CAT_ID":62978,"ELEMENT_SET_NO":999,"REV_AT_EPOCH":6999,"BSTAR":0.000067644158,"MEAN_MOTION_DOT":-9.3e-7,"MEAN_MOTION_DDOT":0},{"OBJECT_NAME":"HULIANWANG DIGUI-19","OBJECT_ID":"2025-030J","EPOCH":"2026-07-18T06:13:41.352096","CLASSIFICATION_TYPE":"U","MEAN_MOTION":13.29319104,"ECCENTRICITY":0.0000734,"INCLINATION":50.0046,"RA_OF_ASC_NODE":124.3311,"ARG_OF_PERICENTER":275.3743,"MEAN_ANOMALY":84.7045,"EPHEMERIS_TYPE":0,"NORAD_CAT_ID":62979,"ELEMENT_SET_NO":999,"REV_AT_EPOCH":6999,"BSTAR":0.000058290178,"MEAN_MOTION_DOT":-9.7e-7,"MEAN_MOTION_DDOT":0},{"OBJECT_NAME":"HULIANWANG DIGUI-20","OBJECT_ID":"2025-086A","EPOCH":"2026-07-18T07:14:30.847488","CLASSIFICATION_TYPE":"U","MEAN_MOTION":13.24411625,"ECCENTRICITY":0.00020909,"INCLINATION":86.5066,"RA_OF_ASC_NODE":302.6538,"ARG_OF_PERICENTER":111.9189,"MEAN_ANOMALY":248.2168,"EPHEMERIS_TYPE":0,"NORAD_CAT_ID":63687,"ELEMENT_SET_NO":999,"REV_AT_EPOCH":5899,"BSTAR":0.000093076886,"MEAN_MOTION_DOT":5.5e-7,"MEAN_MOTION_DDOT":0},{"OBJECT_NAME":"HULIANWANG DIGUI-21","OBJECT_ID":"2025-086B","EPOCH":"2026-07-18T07:25:26.328000","CLASSIFICATION_TYPE":"U","MEAN_MOTION":13.24410309,"ECCENTRICITY":0.00020344,"INCLINATION":86.5095,"RA_OF_ASC_NODE":302.7175,"ARG_OF_PERICENTER":114.816,"MEAN_ANOMALY":245.3186,"EPHEMERIS_TYPE":0,"NORAD_CAT_ID":63688,"ELEMENT_SET_NO":999,"REV_AT_EPOCH":5898,"BSTAR":0.00012116523,"MEAN_MOTION_DOT":6.7e-7,"MEAN_MOTION_DDOT":0},{"OBJECT_NAME":"HULIANWANG DIGUI-22","OBJECT_ID":"2025-086C","EPOCH":"2026-07-18T07:36:16.083648","CLASSIFICATION_TYPE":"U","MEAN_MOTION":13.24410678,"ECCENTRICITY":0.00021333,"INCLINATION":86.506,"RA_OF_ASC_NODE":302.5724,"ARG_OF_PERICENTER":111.0876,"MEAN_ANOMALY":249.0486,"EPHEMERIS_TYPE":0,"NORAD_CAT_ID":63689,"ELEMENT_SET_NO":999,"REV_AT_EPOCH":5898,"BSTAR":0.00013365684,"MEAN_MOTION_DOT":7.2e-7,"MEAN_MOTION_DDOT":0},{"OBJECT_NAME":"HULIANWANG DIGUI-23","OBJECT_ID":"2025-086D","EPOCH":"2026-07-18T06:09:12.134880","CLASSIFICATION_TYPE":"U","MEAN_MOTION":13.24410435,"ECCENTRICITY":0.00021096,"INCLINATION":86.5102,"RA_OF_ASC_NODE":302.7837,"ARG_OF_PERICENTER":111.6606,"MEAN_ANOMALY":248.4753,"EPHEMERIS_TYPE":0,"NORAD_CAT_ID":63690,"ELEMENT_SET_NO":999,"REV_AT_EPOCH":5897,"BSTAR":0.000074330529,"MEAN_MOTION_DOT":4.7e-7,"MEAN_MOTION_DDOT":0},{"OBJECT_NAME":"HULIANWANG DIGUI-24","OBJECT_ID":"2025-086E","EPOCH":"2026-07-18T06:20:07.855584","CLASSIFICATION_TYPE":"U","MEAN_MOTION":13.24411129,"ECCENTRICITY":0.00020743,"INCLINATION":86.5109,"RA_OF_ASC_NODE":302.8166,"ARG_OF_PERICENTER":114.0648,"MEAN_ANOMALY":246.0703,"EPHEMERIS_TYPE":0,"NORAD_CAT_ID":63691,"ELEMENT_SET_NO":999,"REV_AT_EPOCH":5897,"BSTAR":0.00005019522,"MEAN_MOTION_DOT":3.6e-7,"MEAN_MOTION_DDOT":0},{"OBJECT_NAME":"HULIANWANG DIGUI-25","OBJECT_ID":"2025-086F","EPOCH":"2026-07-18T06:31:00.688800","CLASSIFICATION_TYPE":"U","MEAN_MOTION":13.24410445,"ECCENTRICITY":0.0002019,"INCLINATION":86.5047,"RA_OF_ASC_NODE":302.5562,"ARG_OF_PERICENTER":111.819,"MEAN_ANOMALY":248.316,"EPHEMERIS_TYPE":0,"NORAD_CAT_ID":63692,"ELEMENT_SET_NO":999,"REV_AT_EPOCH":5897,"BSTAR":0.000027297519,"MEAN_MOTION_DOT":2.6e-7,"MEAN_MOTION_DDOT":0},{"OBJECT_NAME":"HULIANWANG DIGUI-26","OBJECT_ID":"2025-086G","EPOCH":"2026-07-18T05:58:19.826976","CLASSIFICATION_TYPE":"U","MEAN_MOTION":13.24409466,"ECCENTRICITY":0.00022465,"INCLINATION":86.5096,"RA_OF_ASC_NODE":302.7536,"ARG_OF_PERICENTER":116.8826,"MEAN_ANOMALY":243.2538,"EPHEMERIS_TYPE":0,"NORAD_CAT_ID":63693,"ELEMENT_SET_NO":999,"REV_AT_EPOCH":5897,"BSTAR":0.00010362397,"MEAN_MOTION_DOT":5.9e-7,"MEAN_MOTION_DDOT":0},{"OBJECT_NAME":"HULIANWANG DIGUI-27","OBJECT_ID":"2025-086H","EPOCH":"2026-07-18T06:41:50.791776","CLASSIFICATION_TYPE":"U","MEAN_MOTION":13.24412282,"ECCENTRICITY":0.00020903,"INCLINATION":86.5057,"RA_OF_ASC_NODE":302.6004,"ARG_OF_PERICENTER":113.3288,"MEAN_ANOMALY":246.8067,"EPHEMERIS_TYPE":0,"NORAD_CAT_ID":63694,"ELEMENT_SET_NO":999,"REV_AT_EPOCH":5897,"BSTAR":0.000046662382,"MEAN_MOTION_DOT":3.5e-7,"MEAN_MOTION_DDOT":0}]}
